[{"OBJECT_NAME":"CSG-2","OBJECT_ID":"2022-008A","EPOCH":"2026-03-09T23:30:39.658752","MEAN_MOTION":14.82158958,"ECCENTRICITY":0.00013321,"INCLINATION":97.8865,"RA_OF_ASC_NODE":254.0106,"ARG_OF_PERICENTER":78.3259,"MEAN_ANOMALY":281.8104,"EPHEMERIS_TYPE":0,"CLASSIFICATION_TYPE":"U","NORAD_CAT_ID":51444,"ELEMENT_SET_NO":999,"REV_AT_EPOCH":22189,"BSTAR":5.5111753e-5,"MEAN_MOTION_DOT":3.87e-6,"MEAN_MOTION_DDOT":0},{"OBJECT_NAME":"GEESAT-6 09","OBJECT_ID":"2025-214K","EPOCH":"2026-03-09T22:24:29.731680","MEAN_MOTION":14.8300753,"ECCENTRICITY":0.00083289,"INCLINATION":49.9843,"RA_OF_ASC_NODE":48.1126,"ARG_OF_PERICENTER":190.9189,"MEAN_ANOMALY":169.1569,"EPHEMERIS_TYPE":0,"CLASSIFICATION_TYPE":"U","NORAD_CAT_ID":65721,"ELEMENT_SET_NO":999,"REV_AT_EPOCH":2477,"BSTAR":0.00038162115,"MEAN_MOTION_DOT":2.911e-5,"MEAN_MOTION_DDOT":0}]
